ISS (ZARYA)             
1 25544U 98067A   25359.24512050  .00013923  00000+0  25323-3 0  9998
2 25544  51.6316  80.5467 0003202 298.8467  61.2200 15.49803499544797
CSS (TIANHE)            
1 48274U 21035A   25359.20293021  .00019600  00000+0  24183-3 0  9995
2 48274  41.4684 301.0153 0008299 140.7074 219.4368 15.59668525265972
ISS (NAUKA)             
1 49044U 21066A   25359.24512050  .00013923  00000+0  25323-3 0  9994
2 49044  51.6316  80.5467 0003202 298.8467  61.2200 15.49803499230442
FREGAT DEB              
1 49271U 11037PF  25355.71975141  .00004375  00000+0  99639-2 0  9996
2 49271  51.6526 172.8815 0862706 243.3133 107.6905 12.34516267203044
CSS (WENTIAN)           
1 53239U 22085A   25359.20293021  .00019600  00000+0  24183-3 0  9998
2 53239  41.4684 301.0153 0008299 140.7074 219.4368 15.59668525173843
CSS (MENGTIAN)          
1 54216U 22143A   25359.20293021  .00019600  00000+0  24183-3 0  9999
2 54216  41.4684 301.0153 0008299 140.7074 219.4368 15.59668525158640
SHENZHOU-20 (SZ-20)     
1 63632U 25082A   25359.20293021  .00019600  00000+0  24183-3 0  9996
2 63632  41.4684 301.0153 0008299 140.7074 219.4368 15.59668525255303
PROGRESS-MS 31          
1 64751U 25146A   25359.24512050  .00013923  00000+0  25323-3 0  9999
2 64751  51.6316  80.5467 0003202 298.8467  61.2200 15.49803499  6759
TIANZHOU-9              
1 64786U 25149A   25359.20293021  .00019600  00000+0  24183-3 0  9991
2 64786  41.4684 301.0153 0008299 140.7074 219.4368 15.59668525255304
CREW DRAGON 11          
1 65077U 25166A   25359.24512050  .00013923  00000+0  25323-3 0  9993
2 65077  51.6316  80.5467 0003202 298.8467  61.2200 15.49803499  2140
DRAGON CRS-33           
1 65304U 25186A   25359.24512050  .00013923  00000+0  25323-3 0  9998
2 65304  51.6316  80.5467 0003202 298.8467  61.2200 15.49803499   118
PROGRESS-MS 32          
1 65586U 25204A   25359.24512050  .00013923  00000+0  25323-3 0  9991
2 65586  51.6316  80.5467 0003202 298.8467  61.2200 15.49803499   277
